OBJECT_NAME,OBJECT_ID,EPOCH,MEAN_MOTION,ECCENTRICITY,INCLINATION,RA_OF_ASC_NODE,ARG_OF_PERICENTER,MEAN_ANOMALY,EPHEMERIS_TYPE,CLASSIFICATION_TYPE,NORAD_CAT_ID,ELEMENT_SET_NO,REV_AT_EPOCH,BSTAR,MEAN_MOTION_DOT,MEAN_MOTION_DDOT
ONEWEB-0236,2021-045AG,2026-07-17T14:22:14.261952,13.15548386,.0002125,87.8981,253.1460,94.7286,265.4087,0,U,48797,999,24825,.24019567E-3,.103E-5,0
ONEWEB-0248,2021-045AH,2026-07-17T01:53:49.265952,13.15549452,.0002469,87.8993,253.2363,105.4740,254.6663,0,U,48798,999,24834,.35933059E-3,.148E-5,0
ONEWEB-0225,2021-045AJ,2026-07-17T02:25:46.580448,13.15548511,.00022899,87.8987,253.2390,111.5077,248.6297,0,U,48799,999,24835,-.21152289E-3,-.67E-6,0
ONEWEB-0215,2021-045AK,2026-07-17T14:29:04.077888,13.15549186,.00024429,87.8992,253.1230,111.8974,248.2417,0,U,48800,999,24829,.35224878E-3,.145E-5,0
ONEWEB-0216,2021-045AL,2026-07-17T01:56:06.791424,13.15548889,.00020517,87.8990,253.2407,98.6416,261.4947,0,U,48801,999,24823,.26182161E-3,.111E-5,0
ONEWEB-0239,2021-045AM,2026-07-17T14:49:37.252128,13.15547814,.0002753,87.8983,253.1376,110.2113,249.9314,0,U,48802,999,24834,.582848E-6,.13E-6,0
ONEWEB-0249,2021-060A,2026-07-17T07:11:31.128576,13.16592506,.00021665,87.9080,222.7966,95.0938,265.0440,0,U,48967,999,24357,.95698068E-4,.49E-6,0
ONEWEB-0250,2021-060B,2026-07-17T02:48:53.201952,13.25835345,.00030551,87.9080,220.4916,84.2833,275.8651,0,U,48968,999,24418,-.11505562E-3,-.37E-6,0
ONEWEB-0252,2021-060D,2026-07-17T11:34:52.091040,13.16595230,.00018854,87.9077,222.7525,96.4607,263.6739,0,U,48970,999,24364,-.15704174E-3,-.47E-6,0
ONEWEB-0253,2021-060E,2026-07-17T02:11:44.000736,13.16595367,.00022162,87.9079,222.8353,93.5320,266.6064,0,U,48971,999,24352,-.17249094E-3,-.53E-6,0
ONEWEB-0254,2021-060F,2026-07-17T02:25:25.419360,13.16594954,.00023435,87.9081,222.8319,98.2740,261.8657,0,U,48972,999,24352,-.39580676E-3,-.138E-5,0
ONEWEB-0255,2021-060G,2026-07-17T01:30:42.351552,13.16594178,.00021727,87.9078,222.8454,97.6248,262.5129,0,U,48973,999,24359,.17524655E-3,.8E-6,0
ONEWEB-0256,2021-060H,2026-07-17T11:15:30.318624,13.16586289,.00020053,87.9077,222.7675,92.6337,267.5023,0,U,48974,999,24361,.28084157E-2,.1086E-4,0
ONEWEB-0257,2021-060J,2026-07-17T12:02:14.402112,13.16593578,.00020504,87.9076,222.7495,97.6547,262.4817,0,U,48975,999,24357,.51770531E-4,.33E-6,0
ONEWEB-0258,2021-060K,2026-07-17T01:07:54.331104,13.16594260,.00021574,87.9077,222.8524,94.7320,265.4058,0,U,48976,999,24352,.26565137E-3,.114E-5,0
ONEWEB-0259,2021-060L,2026-07-17T11:55:24.024576,13.16593677,.00022689,87.9075,222.7613,94.5167,265.6223,0,U,48977,999,24361,-.55813519E-4,-.8E-7,0
ONEWEB-0260,2021-060M,2026-07-17T11:42:49.658400,13.16596110,.00016733,87.9072,222.7632,94.0407,266.0916,0,U,48978,999,24359,-.68110585E-4,-.13E-6,0
ONEWEB-0261,2021-060N,2026-07-17T01:52:22.272384,13.16594160,.0002083,87.9078,222.8455,102.5872,257.5492,0,U,48979,999,24359,.86517643E-4,.46E-6,0
ONEWEB-0262,2021-060P,2026-07-17T12:20:28.734144,13.16594112,.0002329,87.9077,222.7457,94.8934,265.2463,0,U,48980,999,24361,.14450029E-3,.68E-6,0
ONEWEB-0263,2021-060Q,2026-07-17T02:09:27.595008,13.16594435,.00022146,87.9079,222.8418,101.6257,258.5123,0,U,48981,999,24352,-.16447463E-3,-.5E-6,0
ONEWEB-0264,2021-060R,2026-07-17T01:13:35.249088,13.16592540,.00019606,87.9071,222.8516,98.4127,261.7226,0,U,48982,999,24352,.18322047E-3,.83E-6,0
ONEWEB-0266,2021-060T,2026-07-17T12:40:58.608768,13.16595659,.00021168,87.9079,222.7482,91.9618,268.1755,0,U,48984,999,24357,.10381702E-3,.53E-6,0
ONEWEB-0267,2021-060U,2026-07-17T11:07:31.307520,13.16594033,.00020743,87.9081,222.7577,100.1683,259.9682,0,U,48985,999,24357,-.13192484E-3,-.38E-6,0
ONEWEB-0268,2021-060V,2026-07-17T01:14:43.465344,13.16601870,.00019572,87.9074,222.8493,93.3638,266.7717,0,U,48986,999,24378,.21075994E-2,.819E-5,0
ONEWEB-0269,2021-060W,2026-07-17T11:43:59.907648,13.16593982,.0001948,87.9072,222.7623,88.4028,271.7326,0,U,48987,999,24361,-.10873696E-3,-.29E-6,0
ONEWEB-0270,2021-060X,2026-07-17T01:12:26.141184,13.16592588,.00023451,87.9080,222.8516,99.7198,260.4198,0,U,48988,999,24359,.70074922E-4,.4E-6,0
ONEWEB-0271,2021-060Y,2026-07-17T11:50:50.451072,13.16594162,.0002146,87.9075,222.7526,99.6634,260.4739,0,U,48989,999,24365,.10258759E-4,.17E-6,0
ONEWEB-0272,2021-060Z,2026-07-17T01:26:08.012544,13.16595763,.00018314,87.9071,222.8496,99.3656,260.7683,0,U,48990,999,24354,.24416392E-3,.106E-5,0
ONEWEB-0273,2021-060AA,2026-07-17T01:58:03.527328,13.16594346,.00021711,87.9076,222.8460,96.1759,263.9619,0,U,48991,999,24352,-.2041467E-4,.5E-7,0
ONEWEB-0274,2021-060AB,2026-07-17T11:41:41.797248,13.16595080,.00017777,87.9069,222.7650,95.5914,264.5419,0,U,48992,999,24361,-.14967266E-3,-.44E-6,0
