ONEWEB-0236             
1 48797U 21045AG  26198.59877618  .00000103  00000+0  24020-3 0  9998
2 48797  87.8981 253.1460 0002125  94.7286 265.4087 13.15548386248252
ONEWEB-0248             
1 48798U 21045AH  26198.07904243  .00000148  00000+0  35933-3 0  9991
2 48798  87.8993 253.2363 0002469 105.4740 254.6663 13.15549452248340
ONEWEB-0225             
1 48799U 21045AJ  26198.10123357 -.00000067  00000+0 -21152-3 0  9995
2 48799  87.8987 253.2390 0002289 111.5077 248.6297 13.15548511248357
ONEWEB-0215             
1 48800U 21045AK  26198.60351942  .00000145  00000+0  35225-3 0  9997
2 48800  87.8992 253.1230 0002442 111.8974 248.2417 13.15549186248290
ONEWEB-0216             
1 48801U 21045AL  26198.08063416  .00000111  00000+0  26182-3 0  9991
2 48801  87.8990 253.2407 0002051  98.6416 261.4947 13.15548889248233
ONEWEB-0239             
1 48802U 21045AM  26198.61779227  .00000013  00000+0  58285-6 0  9998
2 48802  87.8983 253.1376 0002753 110.2113 249.9314 13.15547814248342
ONEWEB-0249             
1 48967U 21060A   26198.29966584  .00000049  00000+0  95698-4 0  9991
2 48967  87.9080 222.7966 0002166  95.0938 265.0440 13.16592506243571
ONEWEB-0250             
1 48968U 21060B   26198.11728243 -.00000037  00000+0 -11506-3 0  9995
2 48968  87.9080 220.4916 0003055  84.2833 275.8651 13.25835345244186
ONEWEB-0252             
1 48970U 21060D   26198.48254735 -.00000047  00000+0 -15704-3 0  9993
2 48970  87.9077 222.7525 0001885  96.4607 263.6739 13.16595230243647
ONEWEB-0253             
1 48971U 21060E   26198.09148149 -.00000053  00000+0 -17249-3 0  9995
2 48971  87.9079 222.8353 0002216  93.5320 266.6064 13.16595367243521
ONEWEB-0254             
1 48972U 21060F   26198.10098865 -.00000138  00000+0 -39581-3 0  9994
2 48972  87.9081 222.8319 0002343  98.2740 261.8657 13.16594954243522
ONEWEB-0255             
1 48973U 21060G   26198.06299018  .00000080  00000+0  17525-3 0  9991
2 48973  87.9078 222.8454 0002172  97.6248 262.5129 13.16594178243592
ONEWEB-0256             
1 48974U 21060H   26198.46910091  .00001086  00000+0  28084-2 0  9995
2 48974  87.9077 222.7675 0002005  92.6337 267.5023 13.16586289243610
ONEWEB-0257             
1 48975U 21060J   26198.50155558  .00000033  00000+0  51771-4 0  9992
2 48975  87.9076 222.7495 0002050  97.6547 262.4817 13.16593578243577
ONEWEB-0258             
1 48976U 21060K   26198.04715661  .00000114  00000+0  26565-3 0  9991
2 48976  87.9077 222.8524 0002157  94.7320 265.4058 13.16594260243522
ONEWEB-0259             
1 48977U 21060L   26198.49680584 -.00000008  00000+0 -55814-4 0  9990
2 48977  87.9075 222.7613 0002268  94.5167 265.6223 13.16593677243616
ONEWEB-0260             
1 48978U 21060M   26198.48807475 -.00000013  00000+0 -68111-4 0  9990
2 48978  87.9072 222.7632 0001673  94.0407 266.0916 13.16596110243592
ONEWEB-0261             
1 48979U 21060N   26198.07803556  .00000046  00000+0  86518-4 0  9997
2 48979  87.9078 222.8455 0002083 102.5872 257.5492 13.16594160243597
ONEWEB-0262             
1 48980U 21060P   26198.51422146  .00000068  00000+0  14450-3 0  9999
2 48980  87.9077 222.7457 0002329  94.8934 265.2463 13.16594112243618
ONEWEB-0263             
1 48981U 21060Q   26198.08990272 -.00000050  00000+0 -16447-3 0  9993
2 48981  87.9079 222.8418 0002214 101.6257 258.5123 13.16594435243523
ONEWEB-0264             
1 48982U 21060R   26198.05110242  .00000083  00000+0  18322-3 0  9990
2 48982  87.9071 222.8516 0001960  98.4127 261.7226 13.16592540243526
ONEWEB-0266             
1 48984U 21060T   26198.52845612  .00000053  00000+0  10382-3 0  9995
2 48984  87.9079 222.7482 0002116  91.9618 268.1755 13.16595659243571
ONEWEB-0267             
1 48985U 21060U   26198.46355680 -.00000038  00000+0 -13192-3 0  9997
2 48985  87.9081 222.7577 0002074 100.1683 259.9682 13.16594033243570
ONEWEB-0268             
1 48986U 21060V   26198.05189196  .00000819  00000+0  21076-2 0  9994
2 48986  87.9074 222.8493 0001957  93.3638 266.7717 13.16601870243789
ONEWEB-0269             
1 48987U 21060W   26198.48888782 -.00000029  00000+0 -10874-3 0  9999
2 48987  87.9072 222.7623 0001948  88.4028 271.7326 13.16593982243618
ONEWEB-0270             
1 48988U 21060X   26198.05030256  .00000040  00000+0  70075-4 0  9999
2 48988  87.9080 222.8516 0002345  99.7198 260.4198 13.16592588243595
ONEWEB-0271             
1 48989U 21060Y   26198.49363948  .00000017  00000+0  10259-4 0  9997
2 48989  87.9075 222.7526 0002146  99.6634 260.4739 13.16594162243651
ONEWEB-0272             
1 48990U 21060Z   26198.05981496  .00000106  00000+0  24416-3 0  9993
2 48990  87.9071 222.8496 0001831  99.3656 260.7683 13.16595763243544
ONEWEB-0273             
1 48991U 21060AA  26198.08198527  .00000005  00000+0 -20415-4 0  9997
2 48991  87.9076 222.8460 0002171  96.1759 263.9619 13.16594346243526
ONEWEB-0274             
1 48992U 21060AB  26198.48728932 -.00000044  00000+0 -14967-3 0  9999
2 48992  87.9069 222.7650 0001777  95.5914 264.5419 13.16595080243617
